{
 "generated_at": "2026-07-17T07:16:58Z",
 "sources": [
  {
   "name": "CelesTrak",
   "url": "https://celestrak.org/NORAD/elements/",
   "license": "frei verfügbar; Attribution. Ursprünglich USSPACECOM/Space-Track."
  },
  {
   "name": "GCAT (J. McDowell, planet4589.org)",
   "url": "https://planet4589.org/space/gcat/",
   "license": "CC-BY 4.0"
  }
 ],
 "satellites": [
  {
   "norad": 68494,
   "name": "ICEYE-X71",
   "intl": "2026-067CG",
   "group": "sar",
   "gcat": {
    "class": "B",
    "category": "IMG-R",
    "owner": "ICEYE",
    "state": "FI"
   },
   "omm": {
    "OBJECT_NAME": "ICEYE-X71",
    "OBJECT_ID": "2026-067CG",
    "EPOCH": "2026-07-14T08:41:36.635712",
    "MEAN_MOTION": 14.91790708,
    "ECCENTRICITY": 0.00010685,
    "INCLINATION": 97.7625,
    "RA_OF_ASC_NODE": 153.1825,
    "ARG_OF_PERICENTER": 349.9955,
    "MEAN_ANOMALY": 10.1242,
    "EPHEMERIS_TYPE": 0,
    "CLASSIFICATION_TYPE": "U",
    "NORAD_CAT_ID": 68494,
    "ELEMENT_SET_NO": 999,
    "REV_AT_EPOCH": 1577,
    "BSTAR": 0.00015178176,
    "MEAN_MOTION_DOT": 0.00001475,
    "MEAN_MOTION_DDOT": 0
   }
  },
  {
   "norad": 68504,
   "name": "ICEYE-X72",
   "intl": "2026-067CS",
   "group": "sar",
   "gcat": {
    "class": "B",
    "category": "IMG-R",
    "owner": "ICEYE",
    "state": "FI"
   },
   "omm": {
    "OBJECT_NAME": "ICEYE-X72",
    "OBJECT_ID": "2026-067CS",
    "EPOCH": "2026-07-16T20:00:01.999008",
    "MEAN_MOTION": 14.96444368,
    "ECCENTRICITY": 0.0000624,
    "INCLINATION": 97.766,
    "RA_OF_ASC_NODE": 155.7855,
    "ARG_OF_PERICENTER": 150.1503,
    "MEAN_ANOMALY": 165.3028,
    "EPHEMERIS_TYPE": 0,
    "CLASSIFICATION_TYPE": "U",
    "NORAD_CAT_ID": 68504,
    "ELEMENT_SET_NO": 999,
    "REV_AT_EPOCH": 575,
    "BSTAR": 0.0047282,
    "MEAN_MOTION_DOT": 0.00053967,
    "MEAN_MOTION_DDOT": 0
   }
  },
  {
   "norad": 68496,
   "name": "ICEYE-X73",
   "intl": "2026-067CJ",
   "group": "sar",
   "gcat": {
    "class": "B",
    "category": "IMG-R",
    "owner": "ICEYE",
    "state": "FI"
   },
   "omm": {
    "OBJECT_NAME": "ICEYE-X73",
    "OBJECT_ID": "2026-067CJ",
    "EPOCH": "2026-07-16T16:04:41.909664",
    "MEAN_MOTION": 14.92351986,
    "ECCENTRICITY": 0.0001672,
    "INCLINATION": 97.7623,
    "RA_OF_ASC_NODE": 155.5424,
    "ARG_OF_PERICENTER": 146.496,
    "MEAN_ANOMALY": 213.6365,
    "EPHEMERIS_TYPE": 0,
    "CLASSIFICATION_TYPE": "U",
    "NORAD_CAT_ID": 68496,
    "ELEMENT_SET_NO": 999,
    "REV_AT_EPOCH": 1612,
    "BSTAR": 0.00010009,
    "MEAN_MOTION_DOT": 0.00000968,
    "MEAN_MOTION_DDOT": 0
   }
  },
  {
   "norad": 68500,
   "name": "ICEYE-X74",
   "intl": "2026-067CN",
   "group": "sar",
   "gcat": {
    "class": "B",
    "category": "IMG-R",
    "owner": "ICEYE",
    "state": "FI"
   },
   "omm": {
    "OBJECT_NAME": "ICEYE-X74",
    "OBJECT_ID": "2026-067CN",
    "EPOCH": "2026-07-16T10:34:35.036256",
    "MEAN_MOTION": 14.91796391,
    "ECCENTRICITY": 0.0000716,
    "INCLINATION": 97.7633,
    "RA_OF_ASC_NODE": 155.2398,
    "ARG_OF_PERICENTER": 336.4098,
    "MEAN_ANOMALY": 23.7087,
    "EPHEMERIS_TYPE": 0,
    "CLASSIFICATION_TYPE": "U",
    "NORAD_CAT_ID": 68500,
    "ELEMENT_SET_NO": 999,
    "REV_AT_EPOCH": 1608,
    "BSTAR": 0.00013497,
    "MEAN_MOTION_DOT": 0.00001305,
    "MEAN_MOTION_DDOT": 0
   }
  },
  {
   "norad": 68497,
   "name": "ICEYE-X75",
   "intl": "2026-067CK",
   "group": "sar",
   "gcat": {
    "class": "B",
    "category": "IMG-R",
    "owner": "ICEYE",
    "state": "FI"
   },
   "omm": {
    "OBJECT_NAME": "ICEYE-X75",
    "OBJECT_ID": "2026-067CK",
    "EPOCH": "2026-07-16T21:01:05.712384",
    "MEAN_MOTION": 14.92175312,
    "ECCENTRICITY": 0.0001607,
    "INCLINATION": 97.7607,
    "RA_OF_ASC_NODE": 155.7116,
    "ARG_OF_PERICENTER": 142.3326,
    "MEAN_ANOMALY": 217.8006,
    "EPHEMERIS_TYPE": 0,
    "CLASSIFICATION_TYPE": "U",
    "NORAD_CAT_ID": 68497,
    "ELEMENT_SET_NO": 999,
    "REV_AT_EPOCH": 1615,
    "BSTAR": 0.00004273,
    "MEAN_MOTION_DOT": 0.00000379,
    "MEAN_MOTION_DDOT": 0
   }
  },
  {
   "norad": 68502,
   "name": "ICEYE-X76",
   "intl": "2026-067CQ",
   "group": "sar",
   "gcat": {
    "class": "B",
    "category": "IMG-R",
    "owner": "ICEYE",
    "state": "FI"
   },
   "omm": {
    "OBJECT_NAME": "ICEYE-X76",
    "OBJECT_ID": "2026-067CQ",
    "EPOCH": "2026-07-16T20:08:15.692064",
    "MEAN_MOTION": 14.91752847,
    "ECCENTRICITY": 0.0000458,
    "INCLINATION": 97.764,
    "RA_OF_ASC_NODE": 155.6505,
    "ARG_OF_PERICENTER": 297.0482,
    "MEAN_ANOMALY": 63.069,
    "EPHEMERIS_TYPE": 0,
    "CLASSIFICATION_TYPE": "U",
    "NORAD_CAT_ID": 68502,
    "ELEMENT_SET_NO": 999,
    "REV_AT_EPOCH": 1614,
    "BSTAR": 0.000065248,
    "MEAN_MOTION_DOT": 0.00000602,
    "MEAN_MOTION_DDOT": 0
   }
  },
  {
   "norad": 68995,
   "name": "ICEYE-X78",
   "intl": "2026-100R",
   "group": "sar",
   "gcat": {
    "class": "B",
    "category": "IMG-R",
    "owner": "MON/WKL",
    "state": "PL"
   },
   "omm": {
    "OBJECT_NAME": "ICEYE-X78",
    "OBJECT_ID": "2026-100R",
    "EPOCH": "2026-07-16T15:43:59.023200",
    "MEAN_MOTION": 14.91813506,
    "ECCENTRICITY": 0.0003491,
    "INCLINATION": 97.7331,
    "RA_OF_ASC_NODE": 94.5605,
    "ARG_OF_PERICENTER": 52.0617,
    "MEAN_ANOMALY": 308.0917,
    "EPHEMERIS_TYPE": 0,
    "CLASSIFICATION_TYPE": "U",
    "NORAD_CAT_ID": 68995,
    "ELEMENT_SET_NO": 999,
    "REV_AT_EPOCH": 1109,
    "BSTAR": 0.00006089,
    "MEAN_MOTION_DOT": 0.00000559,
    "MEAN_MOTION_DDOT": 0
   }
  },
  {
   "norad": 68996,
   "name": "ICEYE-X82",
   "intl": "2026-100S",
   "group": "sar",
   "gcat": {
    "class": "B",
    "category": "IMG-R",
    "owner": "ICEYE",
    "state": "FI"
   },
   "omm": {
    "OBJECT_NAME": "ICEYE-X82",
    "OBJECT_ID": "2026-100S",
    "EPOCH": "2026-07-16T16:16:08.111424",
    "MEAN_MOTION": 14.91428757,
    "ECCENTRICITY": 0.0005678,
    "INCLINATION": 97.7325,
    "RA_OF_ASC_NODE": 94.5258,
    "ARG_OF_PERICENTER": 60.6047,
    "MEAN_ANOMALY": 299.5738,
    "EPHEMERIS_TYPE": 0,
    "CLASSIFICATION_TYPE": "U",
    "NORAD_CAT_ID": 68996,
    "ELEMENT_SET_NO": 999,
    "REV_AT_EPOCH": 1109,
    "BSTAR": 0.0001315,
    "MEAN_MOTION_DOT": 0.00001259,
    "MEAN_MOTION_DDOT": 0
   }
  },
  {
   "norad": 39216,
   "name": "INSAT-3D",
   "intl": "2013-038B",
   "group": "weather",
   "gcat": {
    "class": "C",
    "category": "MET",
    "owner": "ISRO",
    "state": "IN"
   },
   "omm": {
    "OBJECT_NAME": "INSAT-3D",
    "OBJECT_ID": "2013-038B",
    "EPOCH": "2026-07-16T10:30:55.872288",
    "MEAN_MOTION": 1.00268001,
    "ECCENTRICITY": 0.0000536,
    "INCLINATION": 1.9997,
    "RA_OF_ASC_NODE": 82.169,
    "ARG_OF_PERICENTER": 76.4436,
    "MEAN_ANOMALY": 62.8721,
    "EPHEMERIS_TYPE": 0,
    "CLASSIFICATION_TYPE": "U",
    "NORAD_CAT_ID": 39216,
    "ELEMENT_SET_NO": 999,
    "REV_AT_EPOCH": 4737,
    "BSTAR": 0,
    "MEAN_MOTION_DOT": -0.00000351,
    "MEAN_MOTION_DDOT": 0
   }
  },
  {
   "norad": 41752,
   "name": "INSAT-3DR",
   "intl": "2016-054A",
   "group": "weather",
   "gcat": {
    "class": "C",
    "category": "MET",
    "owner": "ISRO",
    "state": "IN"
   },
   "omm": {
    "OBJECT_NAME": "INSAT-3DR",
    "OBJECT_ID": "2016-054A",
    "EPOCH": "2026-07-16T20:31:03.792864",
    "MEAN_MOTION": 1.00270885,
    "ECCENTRICITY": 0.0010513,
    "INCLINATION": 0.0741,
    "RA_OF_ASC_NODE": 88.8413,
    "ARG_OF_PERICENTER": 180.9766,
    "MEAN_ANOMALY": 46.6194,
    "EPHEMERIS_TYPE": 0,
    "CLASSIFICATION_TYPE": "U",
    "NORAD_CAT_ID": 41752,
    "ELEMENT_SET_NO": 999,
    "REV_AT_EPOCH": 3611,
    "BSTAR": 0,
    "MEAN_MOTION_DOT": -8.7e-7,
    "MEAN_MOTION_DDOT": 0
   }
  }
 ]
}
